IABS R/B                
1 22738U 93046C   24124.28296812 -.00000038  00000+0  00000+0 0  9995
2 22738  13.1769 342.8045 0087836 121.2682 239.5484  1.02137417 18416
